{
  "norad_id": 58066,
  "name": "STARLINK-30571",
  "history": [
    {
      "epoch": "2026-03-28T19:43:55.099200",
      "apogee_km": 484.0508043626587,
      "perigee_km": 482.0499449004683,
      "latitude_deg": 35.73234720291893,
      "longitude_deg": 65.52788800001144,
      "semi_major_axis_km": 6861.187374631563,
      "eccentricity": 0.00014581,
      "inclination_deg": 43.0026,
      "raan_deg": 279.1911,
      "arg_perigee_deg": 264.9891,
      "mean_anomaly_deg": 95.0794,
      "mean_motion_rev_day": 15.27579573
    }
  ]
}